{
  "norad_id": 66584,
  "name": "STARLINK-35939",
  "history": [
    {
      "epoch": "2026-03-28T17:08:28.726368",
      "apogee_km": 484.272626939739,
      "perigee_km": 481.75088032682834,
      "latitude_deg": -42.96808731411046,
      "longitude_deg": -173.0347484801896,
      "semi_major_axis_km": 6861.148753633283,
      "eccentricity": 0.00018377,
      "inclination_deg": 43.0003,
      "raan_deg": 239.2398,
      "arg_perigee_deg": 266.2252,
      "mean_anomaly_deg": 93.839,
      "mean_motion_rev_day": 15.27592471
    }
  ]
}